EUTELSAT 172B           
1 42741U 17029B   26087.79836402 -.00000026  00000+0  00000+0 0  9996
2 42741   0.0182 161.7700 0000185  79.1415  44.6829  1.00270850 32937
