{
  "norad_id": 42741,
  "name": "EUTELSAT 172B",
  "history": [
    {
      "epoch": "2026-03-28T19:09:38.651328",
      "apogee_km": 35787.64092490887,
      "perigee_km": 35786.07323042905,
      "latitude_deg": 0.010076966747209202,
      "longitude_deg": -29.25705407978967,
      "semi_major_axis_km": 42164.99407766896,
      "eccentricity": 1.859e-05,
      "inclination_deg": 0.0182,
      "raan_deg": 161.77,
      "arg_perigee_deg": 79.1415,
      "mean_anomaly_deg": 44.6829,
      "mean_motion_rev_day": 1.0027085
    }
  ]
}